{"type": "FeatureCollection", "features": [{"type": "Feature", "properties": {}, "geometry": {"type": "Polygon", "coordinates": [[[-56.0655691, -25.4782259], [-56.0579629, -25.4843164], [-56.0516029, -25.4836181], [-56.0437388, -25.4885446], [-56.0008946, -25.5008018], [-55.9865416, -25.4944794], [-55.9791429, -25.4863657], [-55.9837154, -25.471737], [-55.9826823, -25.4658388], [-55.9836243, -25.4599677], [-55.9871187, -25.4533555], [-55.9890939, -25.4499258], [-55.9962651, -25.4469076], [-56.0046717, -25.4517999], [-56.0088831, -25.44823], [-56.0174347, -25.4466778], [-56.018681, -25.4476091], [-56.023146, -25.4452091], [-56.0254554, -25.4469103], [-56.0293145, -25.4494072], [-56.0328393, -25.4493798], [-56.0425934, -25.4477609], [-56.0504027, -25.4494895], [-56.0508282, -25.450834], [-56.0512975, -25.4643263], [-56.0607561, -25.4675959], [-56.0655691, -25.4782259]]]}}]}